NORAD_CAT_ID,OBJECT_NAME,OBJECT_TYPE,EPOCH,MEAN_MOTION,ECCENTRICITY,INCLINATION,RA_OF_ASC_NODE,ARG_OF_PERICENTER,MEAN_ANOMALY,BSTAR,MEAN_MOTION_DOT,MEAN_MOTION_DDOT,TLE_LINE0,TLE_LINE1,TLE_LINE2,SEMIMAJOR_AXIS,PERIOD,APOGEE,PERIGEE,DECAYED
56467.0,STARLINK-6055,PAYLOAD,2024-03-09 12:26:44,14.98330532,0.000248,70.0016,165.6051,263.9695,96.1182,-5.0289e-05,-6.93e-06,0.0,0 STARLINK-6055,1 56467U 23064V   24069.51856656 -.00000693  00000-0 -50289-4 0  9994,2 56467  70.0016 165.6051 0002480 263.9695  96.1182 14.98330532 46726,6950.191,96.107,573.78,570.333,0.0
56467.0,STARLINK-6055,PAYLOAD,2024-03-10 12:28:45,14.98328315,0.0002712,70.0004,163.0783,260.82,99.2652,-6.508e-05,-8.69e-06,0.0,0 STARLINK-6055,1 56467U 23064V   24070.51996644 -.00000869  00000-0 -65080-4 0  9998,2 56467  70.0004 163.0783 0002712 260.8200  99.2652 14.98328315 46871,6950.198,96.107,573.948,570.178,0.0
56467.0,STARLINK-6055,PAYLOAD,2024-03-11 12:30:46,14.98319003,0.0003042,70.0002,160.554,267.0236,93.0575,-9.2803e-05,-1.2e-05,0.0,0 STARLINK-6055,1 56467U 23064V   24071.52136620 -.00001200  00000-0 -92803-4 0  9993,2 56467  70.0002 160.5540 0003042 267.0236  93.0575 14.98319003 47025,6950.227,96.108,574.206,569.978,0.0
56467.0,STARLINK-6055,PAYLOAD,2024-03-12 10:56:38,14.98321582,0.0002901,70.001,158.1983,268.3543,91.7284,-1.3625e-05,-2.55e-06,0.0,0 STARLINK-6055,1 56467U 23064V   24072.45600561 -.00000255  00000-0 -13625-4 0  9990,2 56467  70.0010 158.1983 0002901 268.3543  91.7284 14.98321582 47168,6950.219,96.108,574.1,570.068,0.0
56467.0,STARLINK-6055,PAYLOAD,2024-03-13 10:58:38,14.98346333,0.0002731,70.0011,155.6744,264.9755,95.1092,-0.00029917,-3.662e-05,0.0,0 STARLINK-6055,1 56467U 23064V   24073.45739537 -.00003662  00000-0 -29917-3 0  9992,2 56467  70.0011 155.6744 0002731 264.9755  95.1092 14.98346333 47317,6950.142,96.106,573.905,570.109,0.0
56467.0,STARLINK-6055,PAYLOAD,2024-03-14 06:12:16,14.98324324,0.0002706,70.0006,153.6544,267.7291,92.3558,0.00011311,1.257e-05,0.0,0 STARLINK-6055,1 56467U 23064V   24074.25851971  .00001257  00000-0  11311-3 0  9993,2 56467  70.0006 153.6544 0002706 267.7291  92.3558 14.98324324 47070,6950.21,96.107,573.956,570.195,0.0
56467.0,STARLINK-6055,PAYLOAD,2024-03-14 11:00:40,14.98328158,0.0002719,70.001,153.1498,256.3241,103.7615,4.9193e-05,4.94e-06,0.0,0 STARLINK-6055,1 56467U 23064V   24074.45879877  .00000494  00000-0  49193-4 0  9992,2 56467  70.0010 153.1498 0002719 256.3241 103.7615 14.98328158 47464,6950.199,96.107,573.953,570.174,0.0
56467.0,STARLINK-6055,PAYLOAD,2024-03-14 15:49:04,14.9832563,0.0002433,70.0011,152.6453,257.7905,102.2982,0.00011473,1.276e-05,0.0,0 STARLINK-6055,1 56467U 23064V   24074.65907938  .00001276  00000-0  11473-3 0  9992,2 56467  70.0011 152.6453 0002433 257.7905 102.2982 14.98325630 47132,6950.206,96.107,573.762,570.38,0.0
56467.0,STARLINK-6055,PAYLOAD,2024-03-15 11:02:41,14.9834003,0.0002557,70.0012,150.6253,252.5594,107.5286,-0.00022914,-2.827e-05,0.0,0 STARLINK-6055,1 56467U 23064V   24075.46019912 -.00002827  00000-0 -22914-3 0  9995,2 56467  70.0012 150.6253 0002557 252.5594 107.5286 14.98340030 47612,6950.162,96.106,573.804,570.25,0.0
56467.0,STARLINK-6055,PAYLOAD,2024-03-16 12:40:50,14.9832683,0.0002651,70.001,147.9327,253.9568,106.1299,-4.1384e-05,-5.87e-06,0.0,0 STARLINK-6055,1 56467U 23064V   24076.52836275 -.00000587  00000-0 -41384-4 0  9996,2 56467  70.0010 147.9327 0002651 253.9568 106.1299 14.98326830 47770,6950.203,96.107,573.91,570.225,0.0
56467.0,STARLINK-6055,PAYLOAD,2024-03-16 14:16:58,14.98326959,0.0002681,70.0008,147.7641,256.0938,103.9923,-4.2524e-05,-6e-06,0.0,0 STARLINK-6055,1 56467U 23064V   24076.59512287 -.00000600  00000-0 -42524-4 0  9990,2 56467  70.0008 147.7641 0002681 256.0938 103.9923 14.98326959 47425,6950.202,96.107,573.931,570.204,0.0
56467.0,STARLINK-6055,PAYLOAD,2024-03-17 12:42:51,14.98327359,0.0003075,69.9996,145.4068,265.9552,94.1256,6.2225e-06,-1.9e-07,0.0,0 STARLINK-6055,1 56467U 23064V   24077.52976258 -.00000019  00000-0  62225-5 0  9990,2 56467  69.9996 145.4068 0003075 265.9552  94.1256 14.98327359 47925,6950.201,96.107,574.203,569.929,0.0
56467.0,STARLINK-6055,PAYLOAD,2024-03-17 14:18:59,14.98327515,0.0003081,69.9996,145.2385,266.2777,93.8029,7.683e-06,-1e-08,0.0,0 STARLINK-6055,1 56467U 23064V   24077.59652254 -.00000001  00000-0  76830-5 0  9992,2 56467  69.9996 145.2385 0003081 266.2777  93.8029 14.98327515 47574,6950.201,96.107,574.207,569.924,0.0
56467.0,STARLINK-6055,PAYLOAD,2024-03-18 11:08:43,14.98333145,0.0003071,69.9994,143.0504,265.8675,94.2133,5.2062e-05,5.28e-06,0.0,0 STARLINK-6055,1 56467U 23064V   24078.46439739  .00000528  00000-0  52062-4 0  9993,2 56467  69.9994 143.0504 0003071 265.8675  94.2133 14.98333145 48064,6950.183,96.107,574.183,569.914,0.0
56467.0,STARLINK-6055,PAYLOAD,2024-03-18 14:20:59,14.98335481,0.0003034,69.9996,142.714,264.8214,95.2599,7.7123e-05,8.27e-06,0.0,0 STARLINK-6055,1 56467U 23064V   24078.59791476  .00000827  00000-0  77123-4 0  9993,2 56467  69.9996 142.7140 0003034 264.8214  95.2599 14.98335481 47729,6950.176,96.107,574.15,569.932,0.0
56467.0,STARLINK-6055,PAYLOAD,2024-03-19 12:46:52,14.98331103,0.0002842,69.9998,140.356,267.4422,92.6412,0.00012329,1.378e-05,0.0,0 STARLINK-6055,1 56467U 23064V   24079.53255491  .00001378  00000-0  12329-3 0  9998,2 56467  69.9998 140.3560 0002842 267.4422  92.6412 14.98331103 48225,6950.189,96.107,574.03,570.079,0.0
56467.0,STARLINK-6055,PAYLOAD,2024-03-20 12:48:54,14.9832977,0.0002649,69.9992,137.8319,256.7028,103.3836,-4.8872e-05,-6.76e-06,0.0,0 STARLINK-6055,1 56467U 23064V   24080.53395889 -.00000676  00000-0 -48872-4 0  9991,2 56467  69.9992 137.8319 0002649 256.7028 103.3836 14.98329770 48014,6950.194,96.107,573.9,570.217,0.0
56467.0,STARLINK-6055,PAYLOAD,2024-03-21 12:50:54,14.98334432,0.0002896,69.999,135.3064,268.0261,92.0567,-2.2991e-05,-3.67e-06,0.0,0 STARLINK-6055,1 56467U 23064V   24081.53535427 -.00000367  00000-0 -22991-4 0  9997,2 56467  69.9990 135.3064 0002896 268.0261  92.0567 14.98334432 48523,6950.179,96.107,574.057,570.031,0.0
56467.0,STARLINK-6055,PAYLOAD,2024-03-22 04:52:15,14.98325907,0.0002704,69.9991,133.6229,266.144,93.9409,2.1775e-05,1.67e-06,0.0,0 STARLINK-6055,1 56467U 23064V   24082.20295845  .00000167  00000-0  21775-4 0  9994,2 56467  69.9991 133.6229 0002704 266.1440  93.9409 14.98325907 48627,6950.206,96.107,573.95,570.191,0.0
56467.0,STARLINK-6055,PAYLOAD,2024-03-22 12:52:55,14.98328161,0.0002676,69.9993,132.7817,266.7537,93.3316,4.5267e-05,4.47e-06,0.0,0 STARLINK-6055,1 56467U 23064V   24082.53675702  .00000447  00000-0  45267-4 0  9997,2 56467  69.9993 132.7817 0002676 266.7537  93.3316 14.98328161 48315,6950.199,96.107,573.923,570.204,0.0
56467.0,STARLINK-6055,PAYLOAD,2024-03-23 04:54:17,14.9832416,0.0002516,69.9997,131.0978,261.2434,98.844,-8.9611e-05,-1.162e-05,0.0,0 STARLINK-6055,1 56467U 23064V   24083.20436524 -.00001162  00000-0 -89611-4 0  9997,2 56467  69.9997 131.0978 0002516 261.2434  98.8440 14.98324160 48771,6950.211,96.107,573.825,570.327,0.0
56467.0,STARLINK-6055,PAYLOAD,2024-03-23 20:55:37,14.98325366,0.0002522,69.9998,129.4145,259.5576,100.5299,1.5752e-06,-7.4e-07,0.0,0 STARLINK-6055,1 56467U 23064V   24083.87196480 -.00000074  00000-0  15752-5 0  9990,2 56467  69.9998 129.4145 0002522 259.5576 100.5299 14.98325366 48517,6950.207,96.107,573.825,570.319,0.0
56467.0,STARLINK-6055,PAYLOAD,2024-03-24 04:56:16,14.98341838,0.0003018,69.9988,128.5731,273.3081,86.7733,0.0001136,1.263e-05,0.0,0 STARLINK-6055,1 56467U 23064V   24084.20574947  .00001263  00000-0  11360-3 0  9995,2 56467  69.9988 128.5731 0003018 273.3081  86.7733 14.98341838 48928,6950.156,96.106,574.119,569.924,0.0
56467.0,STARLINK-6055,PAYLOAD,2024-03-24 12:56:56,14.98347193,0.0002793,69.999,127.731,270.0543,90.0296,0.00020418,2.345e-05,0.0,0 STARLINK-6055,1 56467U 23064V   24084.53954099  .00002345  00000-0  20418-3 0  9997,2 56467  69.9990 127.7310 0002793 270.0543  90.0296 14.98347193 48619,6950.14,96.106,573.946,570.064,0.0
56467.0,STARLINK-6055,PAYLOAD,2024-03-25 04:58:18,14.98323782,0.0003179,69.9982,126.0488,265.027,95.0526,-2.3303e-05,-3.71e-06,0.0,0 STARLINK-6055,1 56467U 23064V   24085.20716105 -.00000371  00000-0 -23303-4 0  9992,2 56467  69.9982 126.0488 0003179 265.0270  95.0526 14.98323782 49078,6950.212,96.107,574.287,569.868,0.0
56467.0,STARLINK-6055,PAYLOAD,2024-03-25 19:23:31,14.98324315,0.0003196,69.9983,124.5321,267.8122,92.2671,-9.2584e-05,-1.197e-05,0.0,0 STARLINK-6055,1 56467U 23064V   24085.80800412 -.00001197  00000-0 -92584-4 0  9997,2 56467  69.9983 124.5321 0003196 267.8122  92.2671 14.98324315 48806,6950.21,96.107,574.297,569.854,0.0
56467.0,STARLINK-6055,PAYLOAD,2024-03-26 05:00:20,14.98327392,0.000287,69.9989,123.5234,267.0581,93.025,-0.00021867,-2.701e-05,0.0,0 STARLINK-6055,1 56467U 23064V   24086.20856779 -.00002701  00000-0 -21867-3 0  9996,2 56467  69.9989 123.5234 0002870 267.0581  93.0250 14.98327392 49220,6950.201,96.107,574.061,570.071,0.0
56467.0,STARLINK-6055,PAYLOAD,2024-03-26 13:01:00,14.98326476,0.0002806,69.9988,122.6819,263.5421,96.5419,-0.00019972,-2.475e-05,0.0,0 STARLINK-6055,1 56467U 23064V   24086.54236854 -.00002475  00000-0 -19972-3 0  9991,2 56467  69.9988 122.6819 0002806 263.5421  96.5419 14.98326476 48913,6950.204,96.107,574.019,570.119,0.0
56467.0,STARLINK-6055,PAYLOAD,2024-03-26 19:25:32,14.98348052,0.0002975,69.9987,122.0082,267.1352,92.9466,-0.00046974,-5.696e-05,0.0,0 STARLINK-6055,1 56467U 23064V   24086.80940102 -.00005696  00000-0 -46974-3 0  9998,2 56467  69.9987 122.0082 0002975 267.1352  92.9466 14.98348052 49319,6950.137,96.106,574.07,569.934,0.0
56467.0,STARLINK-6055,PAYLOAD,2024-03-27 05:02:20,14.98324133,0.0002912,69.9985,120.9981,263.6232,96.4595,0.00010073,1.109e-05,0.0,0 STARLINK-6055,1 56467U 23064V   24087.20996349  .00001109  00000-0  10073-3 0  9991,2 56467  69.9985 120.9981 0002912 263.6232  96.4595 14.98324133 49373,6950.211,96.107,574.1,570.052,0.0
